start=new Date('2022-12-01T00:00:00.000Z').valueOf();
sats=[{"REF_FRAME":"TEME","OBJECT_TYPE":"PAYLOAD","ELEMENT_SET_NO":"999","NORAD_CAT_ID":"53985","CLASSIFICATION_TYPE":"U","EPOCH":"2022-11-30T22:00:00.999936","APOAPSIS":"482.928","MEAN_MOTION_DDOT":"0.0000000000000","SEMIMAJOR_AXIS":"6860.169","MEAN_ANOMALY":"188.8196","RA_OF_ASC_NODE":"178.4125","TIME_SYSTEM":"UTC","CENTER_NAME":"EARTH","REV_AT_EPOCH":"130","PERIOD":"94.246","INCLINATION":"53.2175","COUNTRY_CODE":"US","OBJECT_ID":"2022-125X","OBJECT_NAME":"STARLINK-5147","LAUNCH_DATE":"2022-10-05","DECAY_DATE":null,"SITE":"AFWTR","ECCENTRICITY":"0.00013040","TLE_LINE2":"2 53985  53.2175 178.4125 0001304  99.5725 188.8196 15.27919809  1304","MEAN_MOTION_DOT":"-0.01136338","ARG_OF_PERICENTER":"99.5725","BSTAR":"-0.04516100000000","EPHEMERIS_TYPE":"0","MEAN_ELEMENT_THEORY":"SGP4","RCS_SIZE":"LARGE","FILE":"3676429","GP_ID":"219218658","TLE_LINE1":"1 53985U 22125X   22334.91667824 -.01136338  00000-0 -45161-1 0  9994","MEAN_MOTION":"15.27919809","PERIAPSIS":"481.139"},{"COUNTRY_CODE":"US","OBJECT_ID":"2022-125Y","INCLINATION":"53.2175","OBJECT_NAME":"STARLINK-5119","MEAN_ANOMALY":"4.4332","PERIOD":"91.989","REV_AT_EPOCH":"130","CENTER_NAME":"EARTH","RA_OF_ASC_NODE":"174.5127","TIME_SYSTEM":"UTC","EPOCH":"2022-11-30T22:00:00.999936","SEMIMAJOR_AXIS":"6750.220","MEAN_MOTION_DDOT":"0.0000000000000","APOAPSIS":"372.878","NORAD_CAT_ID":"53986","ELEMENT_SET_NO":"999","OBJECT_TYPE":"PAYLOAD","REF_FRAME":"TEME","CLASSIFICATION_TYPE":"U","MEAN_MOTION":"15.65401811","PERIAPSIS":"371.293","RCS_SIZE":"LARGE","FILE":"3676429","TLE_LINE1":"1 53986U 22125Y   22334.91667824 -.00912415  00000-0 -98540-2 0  9992","GP_ID":"219218820","MEAN_MOTION_DOT":"-0.00912415","ARG_OF_PERICENTER":"65.7255","BSTAR":"-0.00985400000000","TLE_LINE2":"2 53986  53.2175 174.5127 0001174  65.7255   4.4332 15.65401811  1308","MEAN_ELEMENT_THEORY":"SGP4","EPHEMERIS_TYPE":"0","DECAY_DATE":null,"LAUNCH_DATE":"2022-10-05","ECCENTRICITY":"0.00011740","SITE":"AFWTR"},{"DECAY_DATE":null,"LAUNCH_DATE":"2022-10-05","ECCENTRICITY":"0.00014810","SITE":"AFWTR","MEAN_MOTION_DOT":"-0.01136962","ARG_OF_PERICENTER":"124.0692","BSTAR":"-0.04475800000000","TLE_LINE2":"2 53987  53.2175 178.3902 0001481 124.0692 175.5653 15.28229436  1303","MEAN_ELEMENT_THEORY":"SGP4","EPHEMERIS_TYPE":"0","FILE":"3676429","RCS_SIZE":"LARGE","TLE_LINE1":"1 53987U 22125Z   22334.91667824 -.01136962  00000-0 -44758-1 0  9990","GP_ID":"219217953","MEAN_MOTION":"15.28229436","PERIAPSIS":"480.091","NORAD_CAT_ID":"53987","ELEMENT_SET_NO":"999","OBJECT_TYPE":"PAYLOAD","REF_FRAME":"TEME","CLASSIFICATION_TYPE":"U","EPOCH":"2022-11-30T22:00:00.999936","SEMIMAJOR_AXIS":"6859.242","MEAN_MOTION_DDOT":"0.0000000000000","APOAPSIS":"482.123","MEAN_ANOMALY":"175.5653","RA_OF_ASC_NODE":"178.3902","TIME_SYSTEM":"UTC","CENTER_NAME":"EARTH","PERIOD":"94.227","REV_AT_EPOCH":"130","INCLINATION":"53.2175","COUNTRY_CODE":"US","OBJECT_ID":"2022-125Z","OBJECT_NAME":"STARLINK-5112"},{"FILE":"3676429","RCS_SIZE":"LARGE","GP_ID":"219218485","TLE_LINE1":"1 53988U 22125AA  22334.91667824 -.01137704  00000-0 -43973-1 0  9994","MEAN_MOTION":"15.28827395","PERIAPSIS":"478.428","DECAY_DATE":null,"LAUNCH_DATE":"2022-10-05","ECCENTRICITY":"0.00012980","SITE":"AFWTR","MEAN_MOTION_DOT":"-0.01137704","BSTAR":"-0.04397300000000","ARG_OF_PERICENTER":"112.3043","TLE_LINE2":"2 53988  53.2174 178.3454 0001298 112.3043 210.0132 15.28827395  1306","MEAN_ELEMENT_THEORY":"SGP4","EPHEMERIS_TYPE":"0","MEAN_ANOMALY":"210.0132","RA_OF_ASC_NODE":"178.3454","CENTER_NAME":"EARTH","TIME_SYSTEM":"UTC","PERIOD":"94.190","REV_AT_EPOCH":"130","INCLINATION":"53.2174","OBJECT_ID":"2022-125AA","COUNTRY_CODE":"US","OBJECT_NAME":"STARLINK-5113","ELEMENT_SET_NO":"999","NORAD_CAT_ID":"53988","OBJECT_TYPE":"PAYLOAD","REF_FRAME":"TEME","CLASSIFICATION_TYPE":"U","EPOCH":"2022-11-30T22:00:00.999936","SEMIMAJOR_AXIS":"6857.453","MEAN_MOTION_DDOT":"0.0000000000000","APOAPSIS":"480.209"},{"CLASSIFICATION_TYPE":"U","REF_FRAME":"TEME","OBJECT_TYPE":"PAYLOAD","ELEMENT_SET_NO":"999","NORAD_CAT_ID":"53989","APOAPSIS":"480.380","SEMIMAJOR_AXIS":"6857.648","MEAN_MOTION_DDOT":"0.0000000000000","EPOCH":"2022-11-30T22:00:00.999936","TIME_SYSTEM":"UTC","RA_OF_ASC_NODE":"178.3518","CENTER_NAME":"EARTH","PERIOD":"94.194","REV_AT_EPOCH":"130","MEAN_ANOMALY":"212.6642","OBJECT_NAME":"STARLINK-5115","INCLINATION":"53.2174","COUNTRY_CODE":"US","OBJECT_ID":"2022-125AB","SITE":"AFWTR","ECCENTRICITY":"0.00012650","LAUNCH_DATE":"2022-10-05","DECAY_DATE":null,"EPHEMERIS_TYPE":"0","MEAN_ELEMENT_THEORY":"SGP4","TLE_LINE2":"2 53989  53.2174 178.3518 0001265 106.3565 212.6642 15.28762484  1305","MEAN_MOTION_DOT":"-0.01137549","BSTAR":"-0.04405500000000","ARG_OF_PERICENTER":"106.3565","TLE_LINE1":"1 53989U 22125AB  22334.91667824 -.01137549  00000-0 -44055-1 0  9994","GP_ID":"219218994","FILE":"3676429","RCS_SIZE":"LARGE","PERIAPSIS":"478.645","MEAN_MOTION":"15.28762484"},{"FILE":"3676429","RCS_SIZE":"LARGE","TLE_LINE1":"1 53990U 22125AC  22334.91667824 -.01138148  00000-0 -43573-1 0  9996","GP_ID":"219219156","MEAN_MOTION":"15.29136988","PERIAPSIS":"477.545","LAUNCH_DATE":"2022-10-05","DECAY_DATE":null,"SITE":"AFWTR","ECCENTRICITY":"0.00012370","TLE_LINE2":"2 53990  53.2174 178.3239 0001237  71.2593 261.8863 15.29136988  1303","MEAN_MOTION_DOT":"-0.01138148","BSTAR":"-0.04357300000000","ARG_OF_PERICENTER":"71.2593","EPHEMERIS_TYPE":"0","MEAN_ELEMENT_THEORY":"SGP4","MEAN_ANOMALY":"261.8863","PERIOD":"94.171","REV_AT_EPOCH":"130","RA_OF_ASC_NODE":"178.3239","TIME_SYSTEM":"UTC","CENTER_NAME":"EARTH","OBJECT_ID":"2022-125AC","COUNTRY_CODE":"US","INCLINATION":"53.2174","OBJECT_NAME":"STARLINK-5075","OBJECT_TYPE":"PAYLOAD","REF_FRAME":"TEME","ELEMENT_SET_NO":"999","NORAD_CAT_ID":"53990","CLASSIFICATION_TYPE":"U","EPOCH":"2022-11-30T22:00:00.999936","APOAPSIS":"479.241","MEAN_MOTION_DDOT":"0.0000000000000","SEMIMAJOR_AXIS":"6856.528"},{"MEAN_ANOMALY":"259.6644","RA_OF_ASC_NODE":"174.0455","TIME_SYSTEM":"UTC","CENTER_NAME":"EARTH","PERIOD":"91.843","REV_AT_EPOCH":"130","INCLINATION":"53.2175","COUNTRY_CODE":"US","OBJECT_ID":"2022-125AD","OBJECT_NAME":"STARLINK-5118","OBJECT_TYPE":"PAYLOAD","REF_FRAME":"TEME","ELEMENT_SET_NO":"999","NORAD_CAT_ID":"53991","CLASSIFICATION_TYPE":"U","EPOCH":"2022-11-30T22:00:00.999936","APOAPSIS":"365.941","MEAN_MOTION_DDOT":"0.0000000000000","SEMIMAJOR_AXIS":"6743.081","FILE":"3676429","RCS_SIZE":"LARGE","TLE_LINE1":"1 53991U 22125AD  22334.91667824 -.00914178  00000-0 -89231-2 0  9993","GP_ID":"219218313","MEAN_MOTION":"15.67888493","PERIAPSIS":"363.952","LAUNCH_DATE":"2022-10-05","DECAY_DATE":null,"SITE":"AFWTR","ECCENTRICITY":"0.00014750","TLE_LINE2":"2 53991  53.2175 174.0455 0001475  42.4697 259.6644 15.67888493  1306","MEAN_MOTION_DOT":"-0.00914178","BSTAR":"-0.00892310000000","ARG_OF_PERICENTER":"42.4697","EPHEMERIS_TYPE":"0","MEAN_ELEMENT_THEORY":"SGP4"},{"EPHEMERIS_TYPE":"0","MEAN_ELEMENT_THEORY":"SGP4","TLE_LINE2":"2 53992  53.2174 178.2817 0001184 100.9098 253.4684 15.29755948  1308","BSTAR":"-0.04277300000000","MEAN_MOTION_DOT":"-0.01138838","ARG_OF_PERICENTER":"100.9098","SITE":"AFWTR","ECCENTRICITY":"0.00011840","LAUNCH_DATE":"2022-10-05","DECAY_DATE":null,"PERIAPSIS":"475.732","MEAN_MOTION":"15.29755948","TLE_LINE1":"1 53992U 22125AE  22334.91667824 -.01138838  00000-0 -42773-1 0  9995","GP_ID":"219218127","RCS_SIZE":"LARGE","FILE":"3676429","APOAPSIS":"477.355","SEMIMAJOR_AXIS":"6854.678","MEAN_MOTION_DDOT":"0.0000000000000","EPOCH":"2022-11-30T22:00:00.999936","CLASSIFICATION_TYPE":"U","REF_FRAME":"TEME","OBJECT_TYPE":"PAYLOAD","ELEMENT_SET_NO":"999","NORAD_CAT_ID":"53992","OBJECT_NAME":"STARLINK-5108","INCLINATION":"53.2174","OBJECT_ID":"2022-125AE","COUNTRY_CODE":"US","RA_OF_ASC_NODE":"178.2817","TIME_SYSTEM":"UTC","CENTER_NAME":"EARTH","REV_AT_EPOCH":"130","PERIOD":"94.133","MEAN_ANOMALY":"253.4684"},{"MEAN_MOTION_DDOT":"0.0000000000000","SEMIMAJOR_AXIS":"6792.148","APOAPSIS":"415.008","EPOCH":"2022-11-30T22:00:00.999936","CLASSIFICATION_TYPE":"U","NORAD_CAT_ID":"53993","ELEMENT_SET_NO":"999","OBJECT_TYPE":"PAYLOAD","REF_FRAME":"TEME","OBJECT_NAME":"STARLINK-5121","INCLINATION":"53.2176","OBJECT_ID":"2022-125AF","COUNTRY_CODE":"US","TIME_SYSTEM":"UTC","RA_OF_ASC_NODE":"175.6091","CENTER_NAME":"EARTH","REV_AT_EPOCH":"130","PERIOD":"92.848","MEAN_ANOMALY":"190.0336","MEAN_ELEMENT_THEORY":"SGP4","EPHEMERIS_TYPE":"0","ARG_OF_PERICENTER":"55.0550","MEAN_MOTION_DOT":"-0.00917103","BSTAR":"-0.01691700000000","TLE_LINE2":"2 53993  53.2176 175.6091 0001465  55.0550 190.0336 15.50929602  1305","ECCENTRICITY":"0.00014650","SITE":"AFWTR","DECAY_DATE":null,"LAUNCH_DATE":"2022-10-05","PERIAPSIS":"413.018","MEAN_MOTION":"15.50929602","TLE_LINE1":"1 53993U 22125AF  22334.91667824 -.00917103  00000-0 -16917-1 0  9996","GP_ID":"219218659","RCS_SIZE":"LARGE","FILE":"3676429"},{"PERIOD":"94.076","REV_AT_EPOCH":"130","TIME_SYSTEM":"UTC","RA_OF_ASC_NODE":"178.2205","CENTER_NAME":"EARTH","MEAN_ANOMALY":"278.9070","OBJECT_NAME":"STARLINK-5125","OBJECT_ID":"2022-125AG","COUNTRY_CODE":"US","INCLINATION":"53.2174","CLASSIFICATION_TYPE":"U","REF_FRAME":"TEME","OBJECT_TYPE":"PAYLOAD","ELEMENT_SET_NO":"999","NORAD_CAT_ID":"53994","APOAPSIS":"474.588","MEAN_MOTION_DDOT":"0.0000000000000","SEMIMAJOR_AXIS":"6851.906","EPOCH":"2022-11-30T22:00:00.999936","GP_ID":"219218821","TLE_LINE1":"1 53994U 22125AG  22334.91667824 -.01139902  00000-0 -41595-1 0  9991","RCS_SIZE":"LARGE","FILE":"3676429","PERIAPSIS":"472.954","MEAN_MOTION":"15.30684455","SITE":"AFWTR","ECCENTRICITY":"0.00011930","LAUNCH_DATE":"2022-10-05","DECAY_DATE":null,"EPHEMERIS_TYPE":"0","MEAN_ELEMENT_THEORY":"SGP4","TLE_LINE2":"2 53994  53.2174 178.2205 0001193 106.2602 278.9070 15.30684455  1308","MEAN_MOTION_DOT":"-0.01139902","BSTAR":"-0.04159500000000","ARG_OF_PERICENTER":"106.2602"}];
